[{"OBJECT_NAME":"STARLINK-34576","OBJECT_ID":"2025-142F","EPOCH":"2026-03-09T21:21:00.309024","MEAN_MOTION":14.98370737,"ECCENTRICITY":0.00028434,"INCLINATION":70.0018,"RA_OF_ASC_NODE":313.8048,"ARG_OF_PERICENTER":267.5602,"MEAN_ANOMALY":92.5232,"EPHEMERIS_TYPE":0,"CLASSIFICATION_TYPE":"U","NORAD_CAT_ID":64701,"ELEMENT_SET_NO":999,"REV_AT_EPOCH":3950,"BSTAR":0.002065412,"MEAN_MOTION_DOT":0.00024664,"MEAN_MOTION_DDOT":0},{"OBJECT_NAME":"COSMOS 2251 DEB","OBJECT_ID":"1993-036AKM","EPOCH":"2026-03-09T06:40:10.063200","MEAN_MOTION":15.08111536,"ECCENTRICITY":0.00695902,"INCLINATION":73.9816,"RA_OF_ASC_NODE":154.5784,"ARG_OF_PERICENTER":280.7947,"MEAN_ANOMALY":78.5416,"EPHEMERIS_TYPE":0,"CLASSIFICATION_TYPE":"U","NORAD_CAT_ID":35443,"ELEMENT_SET_NO":999,"REV_AT_EPOCH":88177,"BSTAR":0.0043181541,"MEAN_MOTION_DOT":0.00071124,"MEAN_MOTION_DDOT":0}]
